STARLINK-35732          
1 67037U 25294H   25358.25002315 -.01887826  00000+0 -13982-1 0  9991
2 67037  42.9995 111.7173 0001673 274.3563 106.0128 15.75253382  2079
STARLINK-35775          
1 67038U 25294J   25358.25002315 -.01893276  00000+0 -14031-1 0  9994
2 67038  42.9998 111.7119 0001615 276.2057 106.2492 15.75250836  2075
STARLINK-35705          
1 67039U 25294K   25358.25002315 -.01899260  00000+0 -14091-1 0  9990
2 67039  42.9997 111.7012 0001536 275.1686 111.5570 15.75237502  1963
STARLINK-35786          
1 67040U 25294L   25358.25002315 -.01892985  00000+0 -14037-1 0  9999
2 67040  42.9999 111.7066 0001696 276.1295 108.5341 15.75236032  1969
STARLINK-35765          
1 67041U 25294M   25358.25002315 -.01898859  00000+0 -14090-1 0  9995
2 67041  42.9998 111.6961 0001555 274.4504 114.2898 15.75232418  1965
STARLINK-35773          
1 67042U 25294N   25358.25002315 -.01899178  00000+0 -14101-1 0  9994
2 67042  42.9998 111.6907 0001471 274.9343 115.9552 15.75221320  2156
STARLINK-35901          
1 67043U 25294P   25358.25002315 -.01892093  00000+0 -14049-1 0  9995
2 67043  42.9999 111.6854 0001618 276.2505 116.7776 15.75204222  2156
STARLINK-35884          
1 67044U 25294Q   25358.25002315 -.01900324  00000+0 -14121-1 0  9994
2 67044  43.0003 111.6802 0001544 276.0457 119.0642 15.75204530  2150
STARLINK-35891          
1 67045U 25294R   25358.25002315 -.01896202  00000+0 -14100-1 0  9991
2 67045  43.0000 111.6740 0001640 276.5861 120.8968 15.75179379  2074
STARLINK-35721          
1 67046U 25294S   25358.25002315 -.01898244  00000+0 -14126-1 0  9998
2 67046  43.0002 111.6687 0001600 275.4039 124.2836 15.75167214  2154
STARLINK-35779          
1 67047U 25294T   25358.25002315 -.01897015  00000+0 -14134-1 0  9993
2 67047  42.9998 111.6628 0001438 277.8600 124.2079 15.75139396  1968
STARLINK-35905          
1 67048U 25294U   25358.25002315 -.01901118  00000+0 -14166-1 0  9999
2 67048  43.0002 111.6579 0001396 273.3527 130.6691 15.75144824  2070
