CCSDS_OMM_VERS = 2.0
CREATION_DATE  = 
ORIGINATOR     = 

OBJECT_NAME    = STARLINK-35732
OBJECT_ID      = 2025-294H
CENTER_NAME    = EARTH
REF_FRAME      = TEME
TIME_SYSTEM    = UTC
MEAN_ELEMENT_THEORY = SGP/SGP4

EPOCH          = 2025-12-24T06:00:02.000160
MEAN_MOTION    = 15.75253382
ECCENTRICITY   = .00016733
INCLINATION    = 42.9995
RA_OF_ASC_NODE = 111.7173
ARG_OF_PERICENTER = 274.3563
MEAN_ANOMALY   = 106.0128

EPHEMERIS_TYPE = 0
CLASSIFICATION_TYPE = U
NORAD_CAT_ID   = 67037
ELEMENT_SET_NO = 999
REV_AT_EPOCH   = 207
BSTAR          = -.13981987E-1
MEAN_MOTION_DOT = -.1887826E-1
MEAN_MOTION_DDOT = 0

CCSDS_OMM_VERS = 2.0
CREATION_DATE  = 
ORIGINATOR     = 

OBJECT_NAME    = STARLINK-35775
OBJECT_ID      = 2025-294J
CENTER_NAME    = EARTH
REF_FRAME      = TEME
TIME_SYSTEM    = UTC
MEAN_ELEMENT_THEORY = SGP/SGP4

EPOCH          = 2025-12-24T06:00:02.000160
MEAN_MOTION    = 15.75250836
ECCENTRICITY   = .0001615
INCLINATION    = 42.9998
RA_OF_ASC_NODE = 111.7119
ARG_OF_PERICENTER = 276.2057
MEAN_ANOMALY   = 106.2492

EPHEMERIS_TYPE = 0
CLASSIFICATION_TYPE = U
NORAD_CAT_ID   = 67038
ELEMENT_SET_NO = 999
REV_AT_EPOCH   = 207
BSTAR          = -.1403063E-1
MEAN_MOTION_DOT = -.1893276E-1
MEAN_MOTION_DDOT = 0

CCSDS_OMM_VERS = 2.0
CREATION_DATE  = 
ORIGINATOR     = 

OBJECT_NAME    = STARLINK-35705
OBJECT_ID      = 2025-294K
CENTER_NAME    = EARTH
REF_FRAME      = TEME
TIME_SYSTEM    = UTC
MEAN_ELEMENT_THEORY = SGP/SGP4

EPOCH          = 2025-12-24T06:00:02.000160
MEAN_MOTION    = 15.75237502
ECCENTRICITY   = .00015361
INCLINATION    = 42.9997
RA_OF_ASC_NODE = 111.7012
ARG_OF_PERICENTER = 275.1686
MEAN_ANOMALY   = 111.5570

EPHEMERIS_TYPE = 0
CLASSIFICATION_TYPE = U
NORAD_CAT_ID   = 67039
ELEMENT_SET_NO = 999
REV_AT_EPOCH   = 196
BSTAR          = -.14090819E-1
MEAN_MOTION_DOT = -.189926E-1
MEAN_MOTION_DDOT = 0

CCSDS_OMM_VERS = 2.0
CREATION_DATE  = 
ORIGINATOR     = 

OBJECT_NAME    = STARLINK-35786
OBJECT_ID      = 2025-294L
CENTER_NAME    = EARTH
REF_FRAME      = TEME
TIME_SYSTEM    = UTC
MEAN_ELEMENT_THEORY = SGP/SGP4

EPOCH          = 2025-12-24T06:00:02.000160
MEAN_MOTION    = 15.75236032
ECCENTRICITY   = .00016969
INCLINATION    = 42.9999
RA_OF_ASC_NODE = 111.7066
ARG_OF_PERICENTER = 276.1295
MEAN_ANOMALY   = 108.5341

EPHEMERIS_TYPE = 0
CLASSIFICATION_TYPE = U
NORAD_CAT_ID   = 67040
ELEMENT_SET_NO = 999
REV_AT_EPOCH   = 196
BSTAR          = -.14036708E-1
MEAN_MOTION_DOT = -.1892985E-1
MEAN_MOTION_DDOT = 0

CCSDS_OMM_VERS = 2.0
CREATION_DATE  = 
ORIGINATOR     = 

OBJECT_NAME    = STARLINK-35765
OBJECT_ID      = 2025-294M
CENTER_NAME    = EARTH
REF_FRAME      = TEME
TIME_SYSTEM    = UTC
MEAN_ELEMENT_THEORY = SGP/SGP4

EPOCH          = 2025-12-24T06:00:02.000160
MEAN_MOTION    = 15.75232418
ECCENTRICITY   = .00015556
INCLINATION    = 42.9998
RA_OF_ASC_NODE = 111.6961
ARG_OF_PERICENTER = 274.4504
MEAN_ANOMALY   = 114.2898

EPHEMERIS_TYPE = 0
CLASSIFICATION_TYPE = U
NORAD_CAT_ID   = 67041
ELEMENT_SET_NO = 999
REV_AT_EPOCH   = 196
BSTAR          = -.14090406E-1
MEAN_MOTION_DOT = -.1898859E-1
MEAN_MOTION_DDOT = 0

CCSDS_OMM_VERS = 2.0
CREATION_DATE  = 
ORIGINATOR     = 

OBJECT_NAME    = STARLINK-35773
OBJECT_ID      = 2025-294N
CENTER_NAME    = EARTH
REF_FRAME      = TEME
TIME_SYSTEM    = UTC
MEAN_ELEMENT_THEORY = SGP/SGP4

EPOCH          = 2025-12-24T06:00:02.000160
MEAN_MOTION    = 15.75221320
ECCENTRICITY   = .00014712
INCLINATION    = 42.9998
RA_OF_ASC_NODE = 111.6907
ARG_OF_PERICENTER = 274.9343
MEAN_ANOMALY   = 115.9552

EPHEMERIS_TYPE = 0
CLASSIFICATION_TYPE = U
NORAD_CAT_ID   = 67042
ELEMENT_SET_NO = 999
REV_AT_EPOCH   = 215
BSTAR          = -.14100735E-1
MEAN_MOTION_DOT = -.1899178E-1
MEAN_MOTION_DDOT = 0

CCSDS_OMM_VERS = 2.0
CREATION_DATE  = 
ORIGINATOR     = 

OBJECT_NAME    = STARLINK-35901
OBJECT_ID      = 2025-294P
CENTER_NAME    = EARTH
REF_FRAME      = TEME
TIME_SYSTEM    = UTC
MEAN_ELEMENT_THEORY = SGP/SGP4

EPOCH          = 2025-12-24T06:00:02.000160
MEAN_MOTION    = 15.75204222
ECCENTRICITY   = .00016189
INCLINATION    = 42.9999
RA_OF_ASC_NODE = 111.6854
ARG_OF_PERICENTER = 276.2505
MEAN_ANOMALY   = 116.7776

EPHEMERIS_TYPE = 0
CLASSIFICATION_TYPE = U
NORAD_CAT_ID   = 67043
ELEMENT_SET_NO = 999
REV_AT_EPOCH   = 215
BSTAR          = -.1404948E-1
MEAN_MOTION_DOT = -.1892093E-1
MEAN_MOTION_DDOT = 0

CCSDS_OMM_VERS = 2.0
CREATION_DATE  = 
ORIGINATOR     = 

OBJECT_NAME    = STARLINK-35884
OBJECT_ID      = 2025-294Q
CENTER_NAME    = EARTH
REF_FRAME      = TEME
TIME_SYSTEM    = UTC
MEAN_ELEMENT_THEORY = SGP/SGP4

EPOCH          = 2025-12-24T06:00:02.000160
MEAN_MOTION    = 15.75204530
ECCENTRICITY   = .00015444
INCLINATION    = 43.0003
RA_OF_ASC_NODE = 111.6802
ARG_OF_PERICENTER = 276.0457
MEAN_ANOMALY   = 119.0642

EPHEMERIS_TYPE = 0
CLASSIFICATION_TYPE = U
NORAD_CAT_ID   = 67044
ELEMENT_SET_NO = 999
REV_AT_EPOCH   = 215
BSTAR          = -.14120506E-1
MEAN_MOTION_DOT = -.1900324E-1
MEAN_MOTION_DDOT = 0

CCSDS_OMM_VERS = 2.0
CREATION_DATE  = 
ORIGINATOR     = 

OBJECT_NAME    = STARLINK-35891
OBJECT_ID      = 2025-294R
CENTER_NAME    = EARTH
REF_FRAME      = TEME
TIME_SYSTEM    = UTC
MEAN_ELEMENT_THEORY = SGP/SGP4

EPOCH          = 2025-12-24T06:00:02.000160
MEAN_MOTION    = 15.75179379
ECCENTRICITY   = .00016402
INCLINATION    = 43.0000
RA_OF_ASC_NODE = 111.6740
ARG_OF_PERICENTER = 276.5861
MEAN_ANOMALY   = 120.8968

EPHEMERIS_TYPE = 0
CLASSIFICATION_TYPE = U
NORAD_CAT_ID   = 67045
ELEMENT_SET_NO = 999
REV_AT_EPOCH   = 207
BSTAR          = -.14100067E-1
MEAN_MOTION_DOT = -.1896202E-1
MEAN_MOTION_DDOT = 0

CCSDS_OMM_VERS = 2.0
CREATION_DATE  = 
ORIGINATOR     = 

OBJECT_NAME    = STARLINK-35721
OBJECT_ID      = 2025-294S
CENTER_NAME    = EARTH
REF_FRAME      = TEME
TIME_SYSTEM    = UTC
MEAN_ELEMENT_THEORY = SGP/SGP4

EPOCH          = 2025-12-24T06:00:02.000160
MEAN_MOTION    = 15.75167214
ECCENTRICITY   = .00016003
INCLINATION    = 43.0002
RA_OF_ASC_NODE = 111.6687
ARG_OF_PERICENTER = 275.4039
MEAN_ANOMALY   = 124.2836

EPHEMERIS_TYPE = 0
CLASSIFICATION_TYPE = U
NORAD_CAT_ID   = 67046
ELEMENT_SET_NO = 999
REV_AT_EPOCH   = 215
BSTAR          = -.14125544E-1
MEAN_MOTION_DOT = -.1898244E-1
MEAN_MOTION_DDOT = 0

CCSDS_OMM_VERS = 2.0
CREATION_DATE  = 
ORIGINATOR     = 

OBJECT_NAME    = STARLINK-35779
OBJECT_ID      = 2025-294T
CENTER_NAME    = EARTH
REF_FRAME      = TEME
TIME_SYSTEM    = UTC
MEAN_ELEMENT_THEORY = SGP/SGP4

EPOCH          = 2025-12-24T06:00:02.000160
MEAN_MOTION    = 15.75139396
ECCENTRICITY   = .0001438
INCLINATION    = 42.9998
RA_OF_ASC_NODE = 111.6628
ARG_OF_PERICENTER = 277.8600
MEAN_ANOMALY   = 124.2079

EPHEMERIS_TYPE = 0
CLASSIFICATION_TYPE = U
NORAD_CAT_ID   = 67047
ELEMENT_SET_NO = 999
REV_AT_EPOCH   = 196
BSTAR          = -.14133659E-1
MEAN_MOTION_DOT = -.1897015E-1
MEAN_MOTION_DDOT = 0

CCSDS_OMM_VERS = 2.0
CREATION_DATE  = 
ORIGINATOR     = 

OBJECT_NAME    = STARLINK-35905
OBJECT_ID      = 2025-294U
CENTER_NAME    = EARTH
REF_FRAME      = TEME
TIME_SYSTEM    = UTC
MEAN_ELEMENT_THEORY = SGP/SGP4

EPOCH          = 2025-12-24T06:00:02.000160
MEAN_MOTION    = 15.75144824
ECCENTRICITY   = .00013969
INCLINATION    = 43.0002
RA_OF_ASC_NODE = 111.6579
ARG_OF_PERICENTER = 273.3527
MEAN_ANOMALY   = 130.6691

EPHEMERIS_TYPE = 0
CLASSIFICATION_TYPE = U
NORAD_CAT_ID   = 67048
ELEMENT_SET_NO = 999
REV_AT_EPOCH   = 207
BSTAR          = -.14165912E-1
MEAN_MOTION_DOT = -.1901118E-1
MEAN_MOTION_DDOT = 0

